{
  "norad_id": 53636,
  "name": "STARLINK-4586",
  "history": [
    {
      "epoch": "2026-03-28T20:56:08.422944",
      "apogee_km": 540.5821853816678,
      "perigee_km": 538.5857311131167,
      "latitude_deg": 46.163359917007845,
      "longitude_deg": -12.657307839719579,
      "semi_major_axis_km": 6917.7209582473915,
      "eccentricity": 0.0001443,
      "inclination_deg": 53.2169,
      "raan_deg": 137.8316,
      "arg_perigee_deg": 96.3307,
      "mean_anomaly_deg": 263.7849,
      "mean_motion_rev_day": 15.08892161
    }
  ]
}